     2.100          NAVIGATION                              RINEX VERSION / TYPE
fic2rin                                 10/01/2015 00:20:13 PGM / RUN BY / DATE
                                                            END OF HEADER
10 15  9 30  4  0  0.0  .143330544233D-05  .113686837722D-11  .000000000000D+00
     .530000000000D+02  .392812500000D+02  .462519265784D-08 -.203351555538D+01
     .205636024475D-05  .101275681518D-01  .106580555439D-04  .515364439201D+04
     .273600000000D+06  .186264514923D-08  .966573690337D+00 -.134110450745D-06
     .950153540863D+00  .169468750000D+03  .148120360436D+00 -.805247827518D-08
     .657170230921D-09  .100000000000D+01  .186400000000D+04  .000000000000D+00
     .340000000000D+01  .630000000000D+02 -.512227416039D-08  .530000000000D+02
     .266406000000D+06  .400000000000D+01
11 15  9 30  4  0  0.0 -.607270747423D-03 -.238742359215D-11  .000000000000D+00
     .670000000000D+02  .252187500000D+02  .663527638589D-08  .118100109506D+01
     .103190541267D-05  .162942662137D-01  .385567545891D-05  .515362199211D+04
     .273600000000D+06 -.292435288429D-06  .174086873268D+01 -.217929482460D-06
     .893887035857D+00  .272468750000D+03  .146079652767D+01 -.948218068517D-08
     .214651798252D-09  .100000000000D+01  .186400000000D+04  .000000000000D+00
     .240000000000D+01  .000000000000D+00 -.121071934700D-07  .670000000000D+02
     .266406000000D+06  .400000000000D+01
12 15  9 30  4  0  0.0  .332614406943D-03  .341060513165D-11  .000000000000D+00
     .950000000000D+02 -.902187500000D+02  .364800909708D-08  .627694362675D+00
    -.468827784061D-05  .550673110411D-02  .127833336592D-04  .515360984230D+04
     .273600000000D+06  .186264514923D-08  .483964431518D-01  .949949026108D-07
     .990441691803D+00  .147093750000D+03  .645337457535D+00 -.770746390395D-08
    -.397159400426D-09  .100000000000D+01  .186400000000D+04  .000000000000D+00
     .240000000000D+01  .000000000000D+00 -.125728547573D-07  .950000000000D+02
     .266406000000D+06  .400000000000D+01
13 15  9 30  4  0  0.0 -.153039116412D-03 -.295585778076D-11  .000000000000D+00
     .570000000000D+02  .127125000000D+03  .439411160381D-08  .195448253113D+01
     .648573040962D-05  .468924769666D-02  .736489892006D-05  .515368701553D+04
     .273600000000D+06  .108033418655D-06 -.198302479578D+01  .689178705215D-07
     .973009701874D+00  .244937500000D+03  .207249447071D+01 -.806569311135D-08
     .496092092798D-09  .100000000000D+01  .186400000000D+04  .000000000000D+00
     .240000000000D+01  .000000000000D+00 -.111758708954D-07  .570000000000D+02
     .266406000000D+06  .400000000000D+01
14 15  9 30  4  0  0.0  .312812626362D-04 -.261479726760D-11  .000000000000D+00
     .480000000000D+02  .129250000000D+03  .452447417680D-08 -.240176242659D+01
     .668875873089D-05  .846758042462D-02  .823102891445D-05  .515366679192D+04
     .273600000000D+06  .169500708580D-06 -.201849387659D+01  .745058059692D-08
     .965529241437D+00  .220687500000D+03 -.195543498589D+01 -.811319509000D-08
     .601096466652D-09  .100000000000D+01  .186400000000D+04  .000000000000D+00
     .240000000000D+01  .000000000000D+00 -.931322574615D-08  .480000000000D+02
     .266406000000D+06  .400000000000D+01
15 15  9 30  4  0  0.0 -.274284277111D-03 -.204636307899D-11  .000000000000D+00
     .690000000000D+02  .144093750000D+03  .514057126828D-08 -.309027538770D+01
     .738538801670D-05  .747931713704D-02  .922940671444D-05  .515373196030D+04
     .273600000000D+06 -.298023223877D-07 -.214681908873D+01 -.614672899246D-07
     .932367175121D+00  .189656250000D+03  .408298595573D+00 -.835141929871D-08
     .512521348571D-09  .100000000000D+01  .186400000000D+04  .000000000000D+00
     .240000000000D+01  .000000000000D+00 -.107102096081D-07  .690000000000D+02
     .266406000000D+06  .400000000000D+01
16 15  9 30  4  0  0.0 -.813887454569D-04  .386535248253D-11  .000000000000D+00
     .690000000000D+02 -.908750000000D+02  .357050586876D-08 -.138719482818D+01
    -.472366809845D-05  .810934207402D-02  .120941549540D-04  .515363529587D+04
     .273600000000D+06  .689178705215D-07  .670971107497D-01 -.186264514923D-06
     .990977314389D+00  .163375000000D+03  .319716168753D+00 -.755424323598D-08
    -.250010413937D-09  .100000000000D+01  .186400000000D+04  .000000000000D+00
     .240000000000D+01  .000000000000D+00 -.102445483208D-07  .690000000000D+02
     .266406000000D+06  .400000000000D+01
17 15  9 30  4  0  0.0 -.189417041838D-03 -.125055521494D-11  .000000000000D+00
     .650000000000D+02  .625625000000D+02  .418588864478D-08 -.237068143585D+01
     .326894223690D-05  .104116367875D-01  .938400626183D-05  .515357114601D+04
     .273600000000D+06  .298023223877D-07  .109147033452D+01 -.115483999252D-06
     .973573473929D+00  .207250000000D+03 -.200666056339D+01 -.769853496060D-08
     .602167939855D-09  .100000000000D+01  .186400000000D+04  .000000000000D+00
     .240000000000D+01  .000000000000D+00 -.107102096081D-07  .650000000000D+02
     .266406000000D+06  .400000000000D+01
18 15  9 30  4  0  0.0  .438427552581D-03  .341060513165D-11  .000000000000D+00
     .510000000000D+02 -.250937500000D+02  .526557647525D-08 -.821557507476D+00
    -.110082328320D-05  .163596140919D-01  .125411897898D-04  .515363984680D+04
     .273600000000D+06 -.819563865662D-07  .311696664697D+01  .268220901489D-06
     .925519409198D+00  .123187500000D+03 -.193615236216D+01 -.858642908781D-08
    -.414660129402D-09  .100000000000D+01  .186400000000D+04  .000000000000D+00
     .240000000000D+01  .000000000000D+00 -.111758708954D-07  .510000000000D+02
     .266406000000D+06  .400000000000D+01
19 15  9 30  4  0  0.0 -.520849134773D-03 -.568434188608D-12  .000000000000D+00
     .800000000000D+02  .535000000000D+02  .427339228966D-08  .246983879861D+01
     .262074172497D-05  .113646815298D-01  .908598303795D-05  .515514404297D+04
     .273600000000D+06 -.106170773506D-06  .114072517411D+01 -.214204192162D-06
     .970605198517D+00  .210687500000D+03  .652728236705D+00 -.786711341114D-08
     .560023327219D-09  .100000000000D+01  .186400000000D+04  .000000000000D+00
     .240000000000D+01  .000000000000D+00 -.149011611938D-07  .800000000000D+02
     .266406000000D+06  .400000000000D+01
21 15  9 30  4  0  0.0 -.483344309032D-03 -.272848410532D-11  .000000000000D+00
     .310000000000D+02 -.191875000000D+02  .570488048831D-08  .139770370751D+00
    -.890344381332D-06  .225921340752D-01  .428594648838D-05  .515373790169D+04
     .273600000000D+06 -.430271029472D-06  .207423740740D+01  .212341547012D-06
     .934447459259D+00  .287031250000D+03 -.187460463950D+01 -.914430946862D-08
    -.140720147273D-09  .100000000000D+01  .186400000000D+04  .000000000000D+00
     .240000000000D+01  .000000000000D+00 -.116415321827D-07  .310000000000D+02
     .266406000000D+06  .400000000000D+01
22 15  9 30  4  0  0.0  .396236777306D-03  .363797880709D-11  .000000000000D+00
     .920000000000D+02 -.317500000000D+02  .522486049355D-08 -.130557792048D+01
    -.151805579662D-05  .800630473532D-02  .123493373394D-04  .515368488503D+04
     .273600000000D+06  .149011611938D-06  .311790557413D+01  .124797224998D-06
     .923348159351D+00  .118750000000D+03 -.204323255423D+01 -.836141971526D-08
    -.430375069706D-09  .100000000000D+01  .186400000000D+04  .000000000000D+00
     .340000000000D+01  .000000000000D+00 -.176951289177D-07  .920000000000D+02
     .266406000000D+06  .400000000000D+01
23 15  9 30  4  0  0.0 -.136108137667D-03 -.216004991671D-11  .000000000000D+00
     .670000000000D+02  .116562500000D+03  .487770317592D-08  .274527300764D+01
     .607222318649D-05  .104057112476D-01  .881217420101D-05  .515379879189D+04
     .273600000000D+06 -.113621354103D-06 -.209267246320D+01 -.169500708580D-06
     .947490125875D+00  .204843750000D+03 -.262778033230D+01 -.815891127998D-08
     .487877464912D-09  .100000000000D+01  .186400000000D+04  .000000000000D+00
     .240000000000D+01  .000000000000D+00 -.200234353542D-07  .670000000000D+02
     .266406000000D+06  .400000000000D+01
25 15  9 30  4  0  0.0 -.456734560430D-04 -.534328137292D-11  .000000000000D+00
     .530000000000D+02 -.105906250000D+03  .400516683127D-08 -.186249352547D-01
    -.548362731934D-05  .463861110620D-02  .119600445032D-04  .515362850761D+04
     .273600000000D+06  .521540641785D-07  .347764885803D-03  .465661287308D-07
     .978843955225D+00  .155468750000D+03  .739872789140D+00 -.791997275580D-08
    -.423589072757D-09  .100000000000D+01  .186400000000D+04  .000000000000D+00
     .240000000000D+01  .000000000000D+00  .512227416039D-08  .530000000000D+02
     .266406000000D+06  .400000000000D+01
26 15  9 30  4  0  0.0 -.682170502841D-04 -.121644916362D-10  .000000000000D+00
     .910000000000D+02 -.112281250000D+03  .424946272147D-08 -.855600398231D+00
    -.584870576859D-05  .172139145434D-03  .116378068924D-04  .515364947701D+04
     .273600000000D+06  .558793544769D-07 -.442213217670D-02 -.409781932831D-07
     .960908828270D+00  .158656250000D+03  .272800186994D+00 -.797818946647D-08
    -.418588864478D-09  .100000000000D+01  .186400000000D+04  .000000000000D+00
     .340000000000D+01  .000000000000D+00  .745058059692D-08  .910000000000D+02
     .266406000000D+06  .400000000000D+01
27 15  9 30  4  0  0.0  .236690975726D-04  .306954461848D-11  .000000000000D+00
     .500000000000D+02  .418437500000D+02  .428446417942D-08 -.242371361916D+01
     .226870179176D-05  .267580593936D-02  .100117176771D-04  .515370024300D+04
     .273600000000D+06  .149011611938D-07  .104294720998D+01 -.111758708954D-07
     .968526762044D+00  .191062500000D+03  .321591479050D+00 -.790854370830D-08
     .590024576892D-09  .100000000000D+01  .186400000000D+04  .000000000000D+00
     .240000000000D+01  .000000000000D+00  .139698386192D-08  .500000000000D+02
     .266406000000D+06  .400000000000D+01
